NORAD_CAT_ID,OBJECT_NAME,OBJECT_TYPE,EPOCH,MEAN_MOTION,ECCENTRICITY,INCLINATION,RA_OF_ASC_NODE,ARG_OF_PERICENTER,MEAN_ANOMALY,BSTAR,MEAN_MOTION_DOT,MEAN_MOTION_DDOT,TLE_LINE0,TLE_LINE1,TLE_LINE2,SEMIMAJOR_AXIS,PERIOD,APOGEE,PERIGEE,DECAYED
53542.0,STARLINK-4489,PAYLOAD,2024-02-03 19:43:18,15.08844301,0.0001471,53.2155,257.7473,108.2408,251.8745,7.5164e-05,9.09e-06,0.0,0 STARLINK-4489,1 53542U 22101R   24034.82173769  .00000909  00000-0  75164-4 0  9996,2 53542  53.2155 257.7473 0001471 108.2408 251.8745 15.08844301 80838,6917.867,95.437,540.75,538.715,0.0
53542.0,STARLINK-4489,PAYLOAD,2024-02-03 21:18:41,15.08842916,0.000138,53.2156,257.4503,102.2044,257.9103,6.4137e-05,7.33e-06,0.0,0 STARLINK-4489,1 53542U 22101R   24034.88797876  .00000733  00000-0  64137-4 0  9996,2 53542  53.2156 257.4503 0001380 102.2044 257.9103 15.08842916 81532,6917.871,95.437,540.691,538.782,0.0
53542.0,STARLINK-4489,PAYLOAD,2024-02-04 00:29:27,15.08843014,0.0001374,53.2154,256.8551,100.3236,259.7911,6.6885e-05,7.77e-06,0.0,0 STARLINK-4489,1 53542U 22101R   24035.02045903  .00000777  00000-0  66885-4 0  9990,2 53542  53.2154 256.8551 0001374 100.3236 259.7911 15.08843014 81550,6917.871,95.437,540.687,538.786,0.0
53542.0,STARLINK-4489,PAYLOAD,2024-02-04 21:09:27,15.08831803,0.0001478,53.2159,252.9911,85.7365,274.3796,0.00053617,8.254e-05,0.0,0 STARLINK-4489,1 53542U 22101R   24035.88156943  .00008254  00000-0  53617-3 0  9997,2 53542  53.2159 252.9911 0001478  85.7365 274.3796 15.08831803 80990,6917.905,95.438,540.793,538.748,0.0
53542.0,STARLINK-4489,PAYLOAD,2024-02-05 19:24:51,15.08859818,0.0001355,53.2161,248.8285,98.9843,261.1303,5.855e-05,6.44e-06,0.0,0 STARLINK-4489,1 53542U 22101R   24036.80892932  .00000644  00000-0  58550-4 0  9992,2 53542  53.2161 248.8285 0001355  98.9843 261.1303 15.08859818 81829,6917.82,95.436,540.622,538.747,0.0
53542.0,STARLINK-4489,PAYLOAD,2024-02-06 12:54:05,15.08856161,0.0001524,53.2165,245.558,102.9675,257.1487,-4.1071e-05,-9.42e-06,0.0,0 STARLINK-4489,1 53542U 22101R   24037.53756596 -.00000942  00000-0 -41071-4 0  9991,2 53542  53.2165 245.5580 0001524 102.9675 257.1487 15.08856161 81930,6917.831,95.437,540.75,538.642,0.0
53542.0,STARLINK-4489,PAYLOAD,2024-02-06 19:15:38,15.08852744,0.0001529,53.2165,244.3658,108.9002,251.2156,-8.6469e-05,-1.664e-05,0.0,0 STARLINK-4489,1 53542U 22101R   24037.80252659 -.00001664  00000-0 -86469-4 0  9994,2 53542  53.2165 244.3658 0001529 108.9002 251.2156 15.08852744 81287,6917.841,95.437,540.764,538.649,0.0
53542.0,STARLINK-4489,PAYLOAD,2024-02-07 19:06:25,15.08840884,0.0001371,53.2157,239.905,100.7307,259.3839,-2.5514e-05,-6.94e-06,0.0,0 STARLINK-4489,1 53542U 22101R   24038.79612713 -.00000694  00000-0 -25514-4 0  9990,2 53542  53.2157 239.9050 0001371 100.7307 259.3839 15.08840884 81433,6917.878,95.437,540.691,538.794,0.0
53542.0,STARLINK-4489,PAYLOAD,2024-02-07 20:41:48,15.0884254,0.0001302,53.2155,239.6077,89.2559,270.8583,-1.3186e-05,-4.98e-06,0.0,0 STARLINK-4489,1 53542U 22101R   24038.86236596 -.00000498  00000-0 -13186-4 0  9993,2 53542  53.2155 239.6077 0001302  89.2559 270.8583 15.08842540 82134,6917.873,95.437,540.638,538.837,0.0
53542.0,STARLINK-4489,PAYLOAD,2024-02-08 06:14:07,15.08840337,0.0001289,53.2153,237.8225,81.7124,278.4014,-5.3403e-06,-3.73e-06,0.0,0 STARLINK-4489,1 53542U 22101R   24039.25980694 -.00000373  00000-0 -53403-5 0  9991,2 53542  53.2153 237.8225 0001289  81.7124 278.4014 15.08840337 82197,6917.879,95.438,540.636,538.853,0.0
53542.0,STARLINK-4489,PAYLOAD,2024-02-08 18:57:13,15.0883154,0.0001408,53.2159,235.4447,83.0192,277.096,-1.6533e-05,-5.51e-06,0.0,0 STARLINK-4489,1 53542U 22101R   24039.78973434 -.00000551  00000-0 -16533-4 0  9993,2 53542  53.2159 235.4447 0001408  83.0192 277.0960 15.08831540 81589,6917.906,95.438,540.745,538.797,0.0
53542.0,STARLINK-4489,PAYLOAD,2024-02-08 20:32:36,15.08832478,0.0001402,53.2159,235.1474,82.5202,277.595,-9.6125e-06,-4.41e-06,0.0,0 STARLINK-4489,1 53542U 22101R   24039.85597376 -.00000441  00000-0 -96125-5 0  9992,2 53542  53.2159 235.1474 0001402  82.5202 277.5950 15.08832478 82289,6917.903,95.438,540.738,538.798,0.0
53542.0,STARLINK-4489,PAYLOAD,2024-02-09 12:26:27,15.08839602,0.0001485,53.2168,232.1724,80.6466,279.4694,4.5393e-05,4.35e-06,0.0,0 STARLINK-4489,1 53542U 22101R   24040.51836952  .00000435  00000-0  45393-4 0  9994,2 53542  53.2168 232.1724 0001485  80.6466 279.4694 15.08839602 81692,6917.882,95.438,540.774,538.719,0.0
53542.0,STARLINK-4489,PAYLOAD,2024-02-09 20:23:22,15.08846204,0.000141,53.2161,230.6869,82.0309,278.0843,8.7671e-05,1.108e-05,0.0,0 STARLINK-4489,1 53542U 22101R   24040.84956266  .00001108  00000-0  87671-4 0  9994,2 53542  53.2161 230.6869 0001410  82.0309 278.0843 15.08846204 81741,6917.861,95.437,540.702,538.751,0.0
53542.0,STARLINK-4489,PAYLOAD,2024-02-10 12:17:13,15.08840574,0.0001391,53.2161,227.7154,83.5026,276.6125,0.00010321,1.355e-05,0.0,0 STARLINK-4489,1 53542U 22101R   24041.51196491  .00001355  00000-0  10321-3 0  9996,2 53542  53.2161 227.7154 0001391  83.5026 276.6125 15.08840574 81847,6917.879,95.438,540.706,538.781,0.0
53542.0,STARLINK-4489,PAYLOAD,2024-02-10 18:38:46,15.08843415,0.0001387,53.2159,226.5256,79.3346,280.7803,7.5069e-05,9.07e-06,0.0,0 STARLINK-4489,1 53542U 22101R   24041.77692464  .00000907  00000-0  75069-4 0  9998,2 53542  53.2159 226.5256 0001387  79.3346 280.7803 15.08843415 82574,6917.87,95.437,540.694,538.775,0.0
53542.0,STARLINK-4489,PAYLOAD,2024-02-11 12:08:00,15.08844804,0.0001494,53.2159,223.2547,76.5758,283.5401,9.3308e-06,-1.39e-06,0.0,0 STARLINK-4489,1 53542U 22101R   24042.50556436 -.00000139  00000-0  93308-5 0  9993,2 53542  53.2159 223.2547 0001494  76.5758 283.5401 15.08844804 82686,6917.866,95.437,540.764,538.697,0.0
53542.0,STARLINK-4489,PAYLOAD,2024-02-11 18:29:33,15.08845293,0.0001404,53.2158,222.0649,82.7165,277.3987,1.1475e-05,-1.05e-06,0.0,0 STARLINK-4489,1 53542U 22101R   24042.77052254 -.00000105  00000-0  11475-4 0  9998,2 53542  53.2158 222.0649 0001404  82.7165 277.3987 15.08845293 82039,6917.864,95.437,540.7,538.758,0.0
53542.0,STARLINK-4489,PAYLOAD,2024-02-11 21:40:19,15.08849181,0.0001352,53.2156,221.4685,90.7497,269.365,9.8489e-06,-1.31e-06,0.0,0 STARLINK-4489,1 53542U 22101R   24042.90299876 -.00000131  00000-0  98489-5 0  9996,2 53542  53.2156 221.4685 0001352  90.7497 269.3650 15.08849181 82745,6917.852,95.437,540.653,538.782,0.0
53542.0,STARLINK-4489,PAYLOAD,2024-02-12 18:20:20,15.08841664,0.0001346,53.2162,217.6009,102.1262,257.9881,-2.5026e-05,-6.86e-06,0.0,0 STARLINK-4489,1 53542U 22101R   24043.76412367 -.00000686  00000-0 -25026-4 0  9995,2 53542  53.2162 217.6009 0001346 102.1262 257.9881 15.08841664 82185,6917.875,95.437,540.671,538.809,0.0
53542.0,STARLINK-4489,PAYLOAD,2024-02-12 21:31:06,15.08839591,0.0001165,53.2159,217.0065,90.5247,269.5878,3.1337e-05,2.11e-06,0.0,0 STARLINK-4489,1 53542U 22101R   24043.89660301  .00000211  00000-0  31337-4 0  9996,2 53542  53.2159 217.0065 0001165  90.5247 269.5878 15.08839591 82898,6917.882,95.438,540.553,538.941,0.0
53542.0,STARLINK-4489,PAYLOAD,2024-02-13 15:00:22,15.08788855,0.0001738,53.2166,213.732,97.3046,262.8144,0.00049949,7.659e-05,0.0,0 STARLINK-4489,1 53542U 22101R   24044.62526113  .00007659  00000-0  49949-3 0  9990,2 53542  53.2166 213.7320 0001738  97.3046 262.8144 15.08788855 83003,6918.037,95.441,541.104,538.699,0.0
53542.0,STARLINK-4489,PAYLOAD,2024-02-13 18:11:08,15.08833783,0.0001322,53.2166,213.1437,92.6365,267.4778,-2.8606e-05,-7.43e-06,0.0,0 STARLINK-4489,1 53542U 22101R   24044.75773313 -.00000743  00000-0 -28606-4 0  9997,2 53542  53.2166 213.1437 0001322  92.6365 267.4778 15.08833783 82337,6917.899,95.438,540.679,538.85,0.0
53542.0,STARLINK-4489,PAYLOAD,2024-02-14 14:51:08,15.08844397,0.0001273,53.216,209.276,83.1131,277.0006,6.8077e-05,7.96e-06,0.0,0 STARLINK-4489,1 53542U 22101R   24045.61884536  .00000796  00000-0  68077-4 0  9995,2 53542  53.2160 209.2760 0001273  83.1131 277.0006 15.08844397 83152,6917.867,95.437,540.613,538.851,0.0
53542.0,STARLINK-4489,PAYLOAD,2024-02-14 18:01:54,15.08849148,0.0001231,53.216,208.6828,92.7184,267.3949,9.539e-05,1.231e-05,0.0,0 STARLINK-4489,1 53542U 22101R   24045.75132114  .00001231  00000-0  95390-4 0  9991,2 53542  53.2160 208.6828 0001231  92.7184 267.3949 15.08849148 82480,6917.852,95.437,540.569,538.866,0.0
53542.0,STARLINK-4489,PAYLOAD,2024-02-15 14:41:56,15.08832358,0.0002066,53.2167,204.815,79.4366,280.6859,8.4939e-06,-1.53e-06,0.0,0 STARLINK-4489,1 53542U 22101R   24046.61245943 -.00000153  00000-0  84939-5 0  9993,2 53542  53.2167 204.8150 0002066  79.4366 280.6859 15.08832358 83309,6917.904,95.438,541.198,538.34,0.0
53542.0,STARLINK-4489,PAYLOAD,2024-02-15 19:28:05,15.08832493,0.0001567,53.2169,203.9253,86.617,273.5002,3.1063e-05,2.06e-06,0.0,0 STARLINK-4489,1 53542U 22101R   24046.81117890  .00000206  00000-0  31063-4 0  9991,2 53542  53.2169 203.9253 0001567  86.6170 273.5002 15.08832493 82640,6917.903,95.438,540.852,538.684,0.0
53542.0,STARLINK-4489,PAYLOAD,2024-02-15 21:03:28,15.08833699,0.00016,53.217,203.6265,82.2838,277.8336,3.383e-05,2.5e-06,0.0,0 STARLINK-4489,1 53542U 22101R   24046.87741850  .00000250  00000-0  33830-4 0  9999,2 53542  53.2170 203.6265 0001600  82.2838 277.8336 15.08833699 83347,6917.9,95.438,540.872,538.658,0.0
53542.0,STARLINK-4489,PAYLOAD,2024-02-16 09:46:33,15.08840755,0.0001313,53.216,201.2483,88.2556,271.8586,2.3031e-05,7.9e-07,0.0,0 STARLINK-4489,1 53542U 22101R   24047.40733478  .00000079  00000-0  23031-4 0  9997,2 53542  53.2160 201.2483 0001313  88.2556 271.8586 15.08840755 82730,6917.878,95.438,540.651,538.835,0.0
53542.0,STARLINK-4489,PAYLOAD,2024-02-16 14:32:42,15.08847773,0.0001554,53.2169,200.356,86.993,273.124,7.6457e-05,9.29e-06,0.0,0 STARLINK-4489,1 53542U 22101R   24047.60604863  .00000929  00000-0  76457-4 0  9998,2 53542  53.2169 200.3560 0001554  86.9930 273.1240 15.08847773 83452,6917.857,95.437,540.797,538.647,0.0
